[{"OBJECT_NAME":"JILIN-1 GAOFEN 3H","OBJECT_ID":"2020-065G","EPOCH":"2026-03-09T22:15:22.722912","MEAN_MOTION":15.56370311,"ECCENTRICITY":0.00069658,"INCLINATION":97.2405,"RA_OF_ASC_NODE":119.9389,"ARG_OF_PERICENTER":3.7772,"MEAN_ANOMALY":356.3535,"EPHEMERIS_TYPE":0,"CLASSIFICATION_TYPE":"U","NORAD_CAT_ID":46460,"ELEMENT_SET_NO":999,"REV_AT_EPOCH":30439,"BSTAR":0.00074007924,"MEAN_MOTION_DOT":0.00052385,"MEAN_MOTION_DDOT":0},{"OBJECT_NAME":"PEGASUS DEB","OBJECT_ID":"1994-029AGA","EPOCH":"2026-03-08T23:03:30.835584","MEAN_MOTION":15.53864705,"ECCENTRICITY":0.00172183,"INCLINATION":81.7949,"RA_OF_ASC_NODE":302.6073,"ARG_OF_PERICENTER":170.3356,"MEAN_ANOMALY":189.823,"EPHEMERIS_TYPE":0,"CLASSIFICATION_TYPE":"U","NORAD_CAT_ID":39927,"ELEMENT_SET_NO":999,"REV_AT_EPOCH":64162,"BSTAR":0.0015622309,"MEAN_MOTION_DOT":0.00102235,"MEAN_MOTION_DDOT":0}]
